KUIPER-00165            
1 65778U 25217S   25333.83335647 -.00737716  00000+0 -24933-1 0  9999
2 65778  51.8706 126.8486 0004057 300.2049 235.0099 15.32755160  4255
KUIPER-00166            
1 65779U 25217T   25332.74308356 -.00151426  00000+0 -40611-2 0  9996
2 65779  51.8690 131.9353 0001630 269.0070  91.0731 15.37970440  9891
KUIPER-00167            
1 65780U 25217U   25333.83335647 -.00304382  00000+0 -19250-1 0  9997
2 65780  51.8843 129.7044 0011113 301.2281 232.3242 15.10004015  4164
KUIPER-00168            
1 65781U 25217V   25333.68805537  .00047672  00000+0  12246-2 0  9994
2 65781  51.8712 127.0277 0002398 215.0334 145.0496 15.38823930 10045
KUIPER-00169            
1 65782U 25217W   25333.84739198  .00048645  00000+0  12673-2 0  9997
2 65782  51.8697 126.5879 0003080 282.8866  77.1776 15.38382509 10061
KUIPER-00170            
1 65783U 25217X   25333.83335647 -.00547568  00000+0 -20738-1 0  9998
2 65783  51.8695 127.4272 0007646 313.5794 311.5702 15.28736012  5532
KUIPER-00171            
1 65784U 25217Y   25333.67025553  .00248773  00000+0  22225-2 0  9991
2 65784  51.8573 122.4340 0009071 316.1199  43.9079 15.67024682 10109
KUIPER-00172            
1 65785U 25217Z   25333.70072416  .00049521  00000+0  12810-2 0  9995
2 65785  51.8718 127.1103 0002864 285.9076  74.1595 15.38592275 10048
KUIPER-00173            
1 65786U 25217AA  25333.84096573 -.00164354  00000+0 -44352-2 0  9991
2 65786  51.8686 126.5422 0002750 264.3041  95.7633 15.37834677 10065
KUIPER-00174            
1 65787U 25217AB  25333.82502031  .00059209  00000+0  15530-2 0  9997
2 65787  51.8716 126.4428 0003676 235.4128 124.6513 15.38085281 10067
KUIPER-00176            
1 65788U 25217AC  25333.83335647 -.00810282  00000+0 -45168-1 0  9993
2 65788  51.8879 128.3792 0003141 280.1656 198.6349 15.15948719  5851
KUIPER-00101            
1 65947U 25228A   25333.83335647  .00036253  00000+0  21234-2 0  9997
2 65947  51.8921  84.8212 0003751 329.8009 147.0566 15.11465145  5929
KUIPER-00113            
1 65948U 25228B   25333.83335647  .00016013  00000+0  76816-3 0  9997
2 65948  51.8807  83.2353 0006135 305.7450 167.4881 15.19012517  4030
KUIPER-00117            
1 65949U 25228C   25333.83335647 -.00478751  00000+0 -25418-1 0  9991
2 65949  51.8888  83.9232 0009199 320.5650 171.2973 15.17075571  5025
KUIPER-00121            
1 65950U 25228D   25333.51145678  .00035530  00000+0  10398-2 0  9995
2 65950  51.8804  84.3958 0005268 337.4027  22.6726 15.34898721  8389
KUIPER-00122            
1 65951U 25228E   25333.83335647  .00029080  00000+0  21428-2 0  9997
2 65951  51.8901  86.1129 0006368 351.7113 219.8052 15.03082513  4811
KUIPER-00123            
1 65952U 25228F   25333.83335647 -.00006308  00000+0 -45183-3 0  9993
2 65952  51.8917  86.1209 0006643 323.7362 141.2144 15.02309416  5341
KUIPER-00124            
1 65953U 25228G   25333.83335647  .00059927  00000+0  19370-2 0  9995
2 65953  51.8800  83.0009 0004501 341.1376 285.0564 15.31504759  5901
KUIPER-00125            
1 65954U 25228H   25333.56704000  .00044095  00000+0  12508-2 0  9995
2 65954  51.8797  84.0086 0005923 317.2794  42.7731 15.35775223  8390
KUIPER-00126            
1 65955U 25228J   25333.83335647 -.01368120  00000+0 -87130-1 0  9996
2 65955  51.8903  84.8989 0006121 326.1997  36.5835 15.11318729  5802
KUIPER-00127            
1 65956U 25228K   25333.83335647 -.00594540  00000+0 -29844-1 0  9991
2 65956  51.8894  83.8590 0004545 329.9334 251.6504 15.19184258  2809
KUIPER-00128            
1 65957U 25228L   25333.83335647 -.00874791  00000+0 -31192-1 0  9990
2 65957  51.8806  82.8145 0006220 318.2454  27.3512 15.31053872  5906
KUIPER-00129            
1 65958U 25228M   25333.56395779  .00033123  00000+0  94255-3 0  9998
2 65958  51.8798  83.9997 0006146 306.9488  53.0935 15.35810635  8395
KUIPER-00130            
1 65959U 25228N   25333.57401072  .00042619  00000+0  12305-2 0  9999
2 65959  51.8796  84.0555 0005943 327.7786  32.2836 15.35236764  8396
KUIPER-00134            
1 65960U 25228P   25333.77066654  .00043798  00000+0  12643-2 0  9990
2 65960  51.8778  83.1214 0006454 324.2512  35.8041 15.35228562  8425
KUIPER-00135            
1 65961U 25228Q   25333.83672242 -.00004976  00000+0 -13668-3 0  9990
2 65961  51.8803  82.8231 0004755 324.3754  35.6913 15.34236840  8435
KUIPER-00136            
1 65962U 25228R   25333.56241166  .00044757  00000+0  12672-2 0  9990
2 65962  51.8789  83.9872 0005927 307.5468  52.4979 15.35827502  8395
KUIPER-00137            
1 65963U 25228S   25333.77111760  .00041613  00000+0  12045-2 0  9992
2 65963  51.8791  83.1352 0005984 331.0552  29.0101 15.35167345  8426
KUIPER-00138            
1 65964U 25228T   25333.57970284  .00036199  00000+0  10490-2 0  9990
2 65964  51.8798  84.0941 0007293 330.7694  29.2883 15.35188312  8398
KUIPER-00140            
1 65965U 25228U   25333.51870751  .00037345  00000+0  10992-2 0  9994
2 65965  51.8786  84.4387 0007189 328.3868  31.6685 15.34684633  8386
KUIPER-00141            
1 65966U 25228V   25333.56608769  .00035770  00000+0  10181-2 0  9998
2 65966  51.8797  84.0040 0005920 317.3709  42.6817 15.35766131  8399
KUIPER-00146            
1 65967U 25228W   25333.57261316  .00041818  00000+0  12069-2 0  9990
2 65967  51.8816  84.0568 0006423 320.8238  39.2283 15.35254447  8393
KUIPER-00149            
1 65968U 25228X   25333.56219278  .00033888  00000+0  96248-3 0  9990
2 65968  51.8796  83.9817 0005561 311.9228  48.1284 15.35862255  8390
KUIPER-00154            
1 65969U 25228Y   25333.56451372  .00043254  00000+0  12401-2 0  9990
2 65969  51.8792  83.9964 0005872 310.4444  49.6030 15.35450258  8390
KUIPER-00157            
1 65970U 25228Z   25333.77184813  .00034578  00000+0  10028-2 0  9990
2 65970  51.8790  83.1400 0006798 330.7089  29.3515 15.35190089  8425
